[{"OBJECT_NAME":"STARLINK-35181","OBJECT_ID":"2025-211Q","EPOCH":"2026-02-13T16:40:30.875520","MEAN_MOTION":15.05651374,"ECCENTRICITY":7.794e-5,"INCLINATION":97.6024,"RA_OF_ASC_NODE":90.4475,"ARG_OF_PERICENTER":117.6087,"MEAN_ANOMALY":242.5219,"EPHEMERIS_TYPE":0,"CLASSIFICATION_TYPE":"U","NORAD_CAT_ID":65666,"ELEMENT_SET_NO":999,"REV_AT_EPOCH":2343,"BSTAR":0.00010876758,"MEAN_MOTION_DOT":1.509e-5,"MEAN_MOTION_DDOT":0},{"OBJECT_NAME":"STARLINK-35361","OBJECT_ID":"2025-211R","EPOCH":"2026-02-13T19:47:55.717152","MEAN_MOTION":15.05648833,"ECCENTRICITY":8.722e-5,"INCLINATION":97.6024,"RA_OF_ASC_NODE":90.5829,"ARG_OF_PERICENTER":109.8137,"MEAN_ANOMALY":250.3184,"EPHEMERIS_TYPE":0,"CLASSIFICATION_TYPE":"U","NORAD_CAT_ID":65667,"ELEMENT_SET_NO":999,"REV_AT_EPOCH":2345,"BSTAR":0.00011063402,"MEAN_MOTION_DOT":1.536e-5,"MEAN_MOTION_DDOT":0},{"OBJECT_NAME":"STARLINK-35351","OBJECT_ID":"2025-211S","EPOCH":"2026-02-13T16:32:34.716480","MEAN_MOTION":15.05625822,"ECCENTRICITY":0.00015677,"INCLINATION":97.6029,"RA_OF_ASC_NODE":90.457,"ARG_OF_PERICENTER":76.7833,"MEAN_ANOMALY":283.3569,"EPHEMERIS_TYPE":0,"CLASSIFICATION_TYPE":"U","NORAD_CAT_ID":65668,"ELEMENT_SET_NO":999,"REV_AT_EPOCH":2343,"BSTAR":-0.00026433142,"MEAN_MOTION_DOT":-3.87e-5,"MEAN_MOTION_DDOT":0},{"OBJECT_NAME":"STARLINK-35353","OBJECT_ID":"2025-211T","EPOCH":"2026-02-13T16:28:33.452256","MEAN_MOTION":15.0564089,"ECCENTRICITY":4.711e-5,"INCLINATION":97.6029,"RA_OF_ASC_NODE":90.4599,"ARG_OF_PERICENTER":82.585,"MEAN_ANOMALY":277.543,"EPHEMERIS_TYPE":0,"CLASSIFICATION_TYPE":"U","NORAD_CAT_ID":65669,"ELEMENT_SET_NO":999,"REV_AT_EPOCH":2343,"BSTAR":0.00031451762,"MEAN_MOTION_DOT":4.479e-5,"MEAN_MOTION_DDOT":0},{"OBJECT_NAME":"STARLINK-35359","OBJECT_ID":"2025-211U","EPOCH":"2026-02-13T16:24:34.258176","MEAN_MOTION":15.05659975,"ECCENTRICITY":5.517e-5,"INCLINATION":97.603,"RA_OF_ASC_NODE":90.4636,"ARG_OF_PERICENTER":141.047,"MEAN_ANOMALY":219.0797,"EPHEMERIS_TYPE":0,"CLASSIFICATION_TYPE":"U","NORAD_CAT_ID":65670,"ELEMENT_SET_NO":999,"REV_AT_EPOCH":2343,"BSTAR":0.00011529713,"MEAN_MOTION_DOT":1.604e-5,"MEAN_MOTION_DDOT":0},{"OBJECT_NAME":"STARLINK-35194","OBJECT_ID":"2025-211V","EPOCH":"2026-02-13T16:16:35.645376","MEAN_MOTION":15.05649849,"ECCENTRICITY":9.093e-5,"INCLINATION":97.6032,"RA_OF_ASC_NODE":90.4714,"ARG_OF_PERICENTER":97.5871,"MEAN_ANOMALY":262.5459,"EPHEMERIS_TYPE":0,"CLASSIFICATION_TYPE":"U","NORAD_CAT_ID":65671,"ELEMENT_SET_NO":999,"REV_AT_EPOCH":2343,"BSTAR":0.00014814237,"MEAN_MOTION_DOT":2.077e-5,"MEAN_MOTION_DDOT":0},{"OBJECT_NAME":"STARLINK-35198","OBJECT_ID":"2025-211W","EPOCH":"2026-02-13T16:20:34.744416","MEAN_MOTION":15.05648845,"ECCENTRICITY":5.474e-5,"INCLINATION":97.6031,"RA_OF_ASC_NODE":90.467,"ARG_OF_PERICENTER":162.0095,"MEAN_ANOMALY":198.1151,"EPHEMERIS_TYPE":0,"CLASSIFICATION_TYPE":"U","NORAD_CAT_ID":65672,"ELEMENT_SET_NO":999,"REV_AT_EPOCH":2343,"BSTAR":0.00010944636,"MEAN_MOTION_DOT":1.519e-5,"MEAN_MOTION_DDOT":0},{"OBJECT_NAME":"STARLINK-35177","OBJECT_ID":"2025-211X","EPOCH":"2026-02-13T16:08:37.255488","MEAN_MOTION":15.05638546,"ECCENTRICITY":0.0001411,"INCLINATION":97.6037,"RA_OF_ASC_NODE":90.478,"ARG_OF_PERICENTER":93.7327,"MEAN_ANOMALY":266.4061,"EPHEMERIS_TYPE":0,"CLASSIFICATION_TYPE":"U","NORAD_CAT_ID":65673,"ELEMENT_SET_NO":999,"REV_AT_EPOCH":2343,"BSTAR":0.00036806842,"MEAN_MOTION_DOT":5.252e-5,"MEAN_MOTION_DDOT":0},{"OBJECT_NAME":"STARLINK-35254","OBJECT_ID":"2025-211Y","EPOCH":"2026-02-13T16:04:37.883424","MEAN_MOTION":15.05656245,"ECCENTRICITY":9.947e-5,"INCLINATION":97.6043,"RA_OF_ASC_NODE":90.4828,"ARG_OF_PERICENTER":74.3039,"MEAN_ANOMALY":285.8297,"EPHEMERIS_TYPE":0,"CLASSIFICATION_TYPE":"U","NORAD_CAT_ID":65674,"ELEMENT_SET_NO":999,"REV_AT_EPOCH":2343,"BSTAR":0.00035585688,"MEAN_MOTION_DOT":5.078e-5,"MEAN_MOTION_DDOT":0},{"OBJECT_NAME":"STARLINK-34749","OBJECT_ID":"2025-211Z","EPOCH":"2026-02-13T22:35:24.486432","MEAN_MOTION":15.05650469,"ECCENTRICITY":0.00010392,"INCLINATION":97.6033,"RA_OF_ASC_NODE":90.7373,"ARG_OF_PERICENTER":88.2864,"MEAN_ANOMALY":271.8482,"EPHEMERIS_TYPE":0,"CLASSIFICATION_TYPE":"U","NORAD_CAT_ID":65675,"ELEMENT_SET_NO":999,"REV_AT_EPOCH":2347,"BSTAR":0.00014587274,"MEAN_MOTION_DOT":2.045e-5,"MEAN_MOTION_DDOT":0},{"OBJECT_NAME":"STARLINK-35189","OBJECT_ID":"2025-212A","EPOCH":"2026-02-13T10:29:20.433984","MEAN_MOTION":15.30175452,"ECCENTRICITY":0.00010106,"INCLINATION":53.1586,"RA_OF_ASC_NODE":98.0958,"ARG_OF_PERICENTER":91.7422,"MEAN_ANOMALY":268.3695,"EPHEMERIS_TYPE":0,"CLASSIFICATION_TYPE":"U","NORAD_CAT_ID":65676,"ELEMENT_SET_NO":999,"REV_AT_EPOCH":2348,"BSTAR":0.00099670658,"MEAN_MOTION_DOT":0.00029254,"MEAN_MOTION_DDOT":0},{"OBJECT_NAME":"STARLINK-35222","OBJECT_ID":"2025-212B","EPOCH":"2026-02-13T12:26:11.809536","MEAN_MOTION":15.30198041,"ECCENTRICITY":0.00011468,"INCLINATION":53.1579,"RA_OF_ASC_NODE":97.8937,"ARG_OF_PERICENTER":81.335,"MEAN_ANOMALY":278.7781,"EPHEMERIS_TYPE":0,"CLASSIFICATION_TYPE":"U","NORAD_CAT_ID":65677,"ELEMENT_SET_NO":999,"REV_AT_EPOCH":2355,"BSTAR":0.00029777659,"MEAN_MOTION_DOT":8.47e-5,"MEAN_MOTION_DDOT":0},{"OBJECT_NAME":"STARLINK-35233","OBJECT_ID":"2025-212C","EPOCH":"2026-02-13T13:13:18.344928","MEAN_MOTION":15.30227748,"ECCENTRICITY":0.00011983,"INCLINATION":53.1595,"RA_OF_ASC_NODE":98.097,"ARG_OF_PERICENTER":79.6349,"MEAN_ANOMALY":280.4787,"EPHEMERIS_TYPE":0,"CLASSIFICATION_TYPE":"U","NORAD_CAT_ID":65678,"ELEMENT_SET_NO":999,"REV_AT_EPOCH":2355,"BSTAR":0.0011341635,"MEAN_MOTION_DOT":0.00033411,"MEAN_MOTION_DDOT":0},{"OBJECT_NAME":"STARLINK-35205","OBJECT_ID":"2025-212D","EPOCH":"2026-02-13T22:28:30.515520","MEAN_MOTION":15.30217273,"ECCENTRICITY":0.00019644,"INCLINATION":53.1594,"RA_OF_ASC_NODE":96.2328,"ARG_OF_PERICENTER":35.5478,"MEAN_ANOMALY":324.5654,"EPHEMERIS_TYPE":0,"CLASSIFICATION_TYPE":"U","NORAD_CAT_ID":65679,"ELEMENT_SET_NO":999,"REV_AT_EPOCH":2355,"BSTAR":0.00084332627,"MEAN_MOTION_DOT":0.00024714,"MEAN_MOTION_DDOT":0},{"OBJECT_NAME":"STARLINK-35070","OBJECT_ID":"2025-212E","EPOCH":"2026-02-13T13:28:19.993728","MEAN_MOTION":15.30205482,"ECCENTRICITY":0.00014343,"INCLINATION":53.1589,"RA_OF_ASC_NODE":97.4466,"ARG_OF_PERICENTER":80.8745,"MEAN_ANOMALY":279.2418,"EPHEMERIS_TYPE":0,"CLASSIFICATION_TYPE":"U","NORAD_CAT_ID":65680,"ELEMENT_SET_NO":999,"REV_AT_EPOCH":2355,"BSTAR":0.00078169256,"MEAN_MOTION_DOT":0.00022868,"MEAN_MOTION_DDOT":0},{"OBJECT_NAME":"STARLINK-35230","OBJECT_ID":"2025-212F","EPOCH":"2026-02-13T21:59:37.965696","MEAN_MOTION":15.30214394,"ECCENTRICITY":0.0001368,"INCLINATION":53.1584,"RA_OF_ASC_NODE":96.1072,"ARG_OF_PERICENTER":89.6163,"MEAN_ANOMALY":270.4994,"EPHEMERIS_TYPE":0,"CLASSIFICATION_TYPE":"U","NORAD_CAT_ID":65681,"ELEMENT_SET_NO":999,"REV_AT_EPOCH":2361,"BSTAR":0.00083300424,"MEAN_MOTION_DOT":0.00024404,"MEAN_MOTION_DDOT":0},{"OBJECT_NAME":"STARLINK-35235","OBJECT_ID":"2025-212G","EPOCH":"2026-02-13T13:22:15.214656","MEAN_MOTION":15.30213589,"ECCENTRICITY":0.00010016,"INCLINATION":53.1592,"RA_OF_ASC_NODE":97.4169,"ARG_OF_PERICENTER":101.938,"MEAN_ANOMALY":258.1733,"EPHEMERIS_TYPE":0,"CLASSIFICATION_TYPE":"U","NORAD_CAT_ID":65682,"ELEMENT_SET_NO":999,"REV_AT_EPOCH":2350,"BSTAR":0.00077125778,"MEAN_MOTION_DOT":0.00022562,"MEAN_MOTION_DDOT":0},{"OBJECT_NAME":"STARLINK-34886","OBJECT_ID":"2025-212H","EPOCH":"2026-02-13T10:38:28.066560","MEAN_MOTION":15.3019354,"ECCENTRICITY":0.00012548,"INCLINATION":53.1576,"RA_OF_ASC_NODE":98.1324,"ARG_OF_PERICENTER":96.1984,"MEAN_ANOMALY":263.916,"EPHEMERIS_TYPE":0,"CLASSIFICATION_TYPE":"U","NORAD_CAT_ID":65683,"ELEMENT_SET_NO":999,"REV_AT_EPOCH":2348,"BSTAR":0.00069441534,"MEAN_MOTION_DOT":0.00020259,"MEAN_MOTION_DDOT":0},{"OBJECT_NAME":"STARLINK-34795","OBJECT_ID":"2025-212J","EPOCH":"2026-02-13T15:49:29.789184","MEAN_MOTION":15.302151,"ECCENTRICITY":0.0001556,"INCLINATION":53.1587,"RA_OF_ASC_NODE":97.3497,"ARG_OF_PERICENTER":69.4434,"MEAN_ANOMALY":290.6734,"EPHEMERIS_TYPE":0,"CLASSIFICATION_TYPE":"U","NORAD_CAT_ID":65684,"ELEMENT_SET_NO":999,"REV_AT_EPOCH":2351,"BSTAR":0.00074693826,"MEAN_MOTION_DOT":0.00021838,"MEAN_MOTION_DDOT":0},{"OBJECT_NAME":"STARLINK-35145","OBJECT_ID":"2025-212K","EPOCH":"2026-02-13T13:08:44.835360","MEAN_MOTION":15.30201337,"ECCENTRICITY":0.00014407,"INCLINATION":53.1601,"RA_OF_ASC_NODE":98.0727,"ARG_OF_PERICENTER":94.5863,"MEAN_ANOMALY":265.5302,"EPHEMERIS_TYPE":0,"CLASSIFICATION_TYPE":"U","NORAD_CAT_ID":65685,"ELEMENT_SET_NO":999,"REV_AT_EPOCH":2349,"BSTAR":0.00090844332,"MEAN_MOTION_DOT":0.00026644,"MEAN_MOTION_DDOT":0},{"OBJECT_NAME":"STARLINK-35137","OBJECT_ID":"2025-212L","EPOCH":"2026-02-13T09:10:57.372672","MEAN_MOTION":15.39645435,"ECCENTRICITY":0.00010961,"INCLINATION":53.1598,"RA_OF_ASC_NODE":89.8929,"ARG_OF_PERICENTER":109.1827,"MEAN_ANOMALY":250.9297,"EPHEMERIS_TYPE":0,"CLASSIFICATION_TYPE":"U","NORAD_CAT_ID":65686,"ELEMENT_SET_NO":999,"REV_AT_EPOCH":2359,"BSTAR":0.0010356666,"MEAN_MOTION_DOT":0.00041285,"MEAN_MOTION_DDOT":0},{"OBJECT_NAME":"STARLINK-34856","OBJECT_ID":"2025-212M","EPOCH":"2026-02-13T10:33:56.132064","MEAN_MOTION":15.30214145,"ECCENTRICITY":0.00013132,"INCLINATION":53.1569,"RA_OF_ASC_NODE":98.113,"ARG_OF_PERICENTER":76.229,"MEAN_ANOMALY":283.8857,"EPHEMERIS_TYPE":0,"CLASSIFICATION_TYPE":"U","NORAD_CAT_ID":65687,"ELEMENT_SET_NO":999,"REV_AT_EPOCH":2348,"BSTAR":0.0016692803,"MEAN_MOTION_DOT":0.00049431,"MEAN_MOTION_DDOT":0},{"OBJECT_NAME":"STARLINK-34930","OBJECT_ID":"2025-212N","EPOCH":"2026-02-13T13:55:42.039552","MEAN_MOTION":15.30164628,"ECCENTRICITY":0.00013672,"INCLINATION":53.1578,"RA_OF_ASC_NODE":97.5653,"ARG_OF_PERICENTER":81.7651,"MEAN_ANOMALY":278.3505,"EPHEMERIS_TYPE":0,"CLASSIFICATION_TYPE":"U","NORAD_CAT_ID":65688,"ELEMENT_SET_NO":999,"REV_AT_EPOCH":2355,"BSTAR":0.00086738934,"MEAN_MOTION_DOT":0.0002539,"MEAN_MOTION_DDOT":0}]
